EUTELSAT 8 WEST B       
1 40875U 15039B   25312.81514845 -.00000065  00000+0  00000+0 0  9991
2 40875   0.0685 356.7234 0003970 234.8672 102.1216  1.00271830 37449
EUTELSAT 9B             
1 41310U 16005A   25312.81852846  .00000063  00000+0  00000+0 0  9993
2 41310   0.0796  77.0118 0004571 176.4560  98.4767  1.00272874 35902
EUTELSAT 65 WEST A      
1 41382U 16014A   25312.80379506 -.00000276  00000+0  00000+0 0  9995
2 41382   0.0924  56.1828 0002718 184.4308  31.8182  1.00271911 35329
EUTELSAT 117 WEST B     
1 41589U 16038B   25312.65082752 -.00000010  00000+0  00000+0 0  9993
2 41589   0.0172 126.5803 0000366 308.5269  90.3016  1.00271783 34456
EUTELSAT 172B           
1 42741U 17029B   25312.34494887 -.00000003  00000+0  00000+0 0  9999
2 42741   0.0301 148.5530 0000242 140.9153  54.5199  1.00272224 31514
EUTELSAT 7C             
1 44334U 19034B   25312.81809513  .00000050  00000+0  00000+0 0  9996
2 44334   0.0689 186.0311 0003354  23.2813 140.4770  1.00274660  4628
EUTELSAT 5 WEST B       
1 44624U 19067A   25312.81575512 -.00000041  00000+0  00000+0 0  9994
2 44624   0.0689 340.7658 0003539 251.7400 104.4407  1.00270269 22222
EUTELSAT KONNECT        
1 45027U 20005B   25310.03557160  .00000059  00000+0  00000+0 0  9995
2 45027   0.0664  90.5123 0001447 184.0203 150.9894  1.00268266 22089
